FLOCK 4BE-9             
1 60514U 24149AY  26190.03653995  .00011231  00000+0  27016-3 0  9990
2 60514  97.3785 274.5287 0003091 188.6470 171.4725 15.41465848105682
FLOCK 4BE-6             
1 60516U 24149BA  26190.53772123  .00010716  00000+0  26876-3 0  9992
2 60516  97.3785 274.3506 0003749 190.1584 169.9587 15.40208441105715
FLOCK 4BE-14            
1 60517U 24149BB  26191.53871008  .00012078  00000+0  28755-3 0  9997
2 60517  97.3694 275.5187 0004831 192.1520 167.9611 15.41751243105921
FLOCK 4BE-1             
1 60518U 24149BC  26190.03884739  .00013252  00000+0  29887-3 0  9999
2 60518  97.3773 275.3610 0004434 196.2754 163.8352 15.43357693105742
FLOCK 4BE-28            
1 60519U 24149BD  26190.86131701  .00034967  00000+0  71700-3 0  9992
2 60519  97.3741 276.9903 0004492 190.5560 169.5596 15.45968446105947
IPERDRONE.0             
1 60520U 24149BE  26191.21076567  .00074284  00000+0  60570-3 0  9991
2 60520  97.3764 285.6189 0004121 179.5157 180.6110 15.70387933106520
TRANSPORTER-11 OBJECT BF
1 60521U 24149BF  26191.00955358  .00642774  19563-3  10868-2 0  9990
2 60521  97.3769 288.9727 0009099 242.2499 117.7859 16.02659162106710
CONNECTA IOT-2          
1 60522U 24149BG  26191.02834180  .00003178  00000+0  13348-3 0  9990
2 60522  97.3836 268.8295 0005140 234.3060 125.7699 15.24167123105378
CONNECTA IOT-4          
1 60524U 24149BJ  26191.17092334  .00016156  00000+0  36764-3 0  9992
2 60524  97.3792 275.8252 0005605 191.4649 168.6472 15.43036406105874
ORESAT0.5               
1 60525U 24149BK  26191.23243237  .00015999  00000+0  32968-3 0  9996
2 60525  97.3723 277.5988 0005746 180.9142 179.2098 15.45976258106032
DEIMOS                  
1 60526U 24149BL  26191.47205664  .00014131  00000+0  30057-3 0  9999
2 60526  97.3782 277.9699 0005518 185.2685 174.8507 15.45074157106042
CUAVA-2                 
1 60527U 24149BM  26191.20443977  .00008931  00000+0  25159-3 0  9990
2 60527  97.3724 272.7694 0006444 197.0592 163.0436 15.36657093105703
ERNST                   
1 60528U 24149BN  26191.17916814  .00010391  00000+0  26401-3 0  9996
2 60528  97.3805 275.0800 0005713 196.7849 163.3209 15.39810731105814
TORO                    
1 60530U 24149BQ  26190.43921267  .00001275  00000+0  11721-3 0  9995
2 60530  97.6784 264.6917 0001425  92.2842 267.8543 14.96508455103287
HYPSO-2                 
1 60531U 24149BR  26188.69600472  .00002581  00000+0  21836-3 0  9992
2 60531  97.6823 264.6570 0001912 108.2868 251.8563 14.98904414103129
LEMU NGE                
1 60532U 24149BS  26191.20949067  .00001456  00000+0  13821-3 0  9995
2 60532  97.6831 265.7039 0000654  67.3276 292.8014 14.95046009103390
LEMUR-2-STELLA          
1 60533U 24149BT  26190.05274528  .00007901  00000+0  46022-3 0  9991
2 60533  97.6729 272.6092 0001033 111.4430 248.6911 15.12285468103803
SATELIOT_2              
1 60534U 24149BU  26191.36341423  .00001669  00000+0  15219-3 0  9995
2 60534  97.6827 265.8970 0001837  82.5580 277.5851 14.96449125103434
NIGHTJAR                
1 60535U 24149BV  26191.15392678  .00002325  00000+0  19595-3 0  9992
2 60535  97.6828 267.5378 0002319 105.8069 254.3410 14.99146764146318
LEMUR-2-MARHISYAM       
1 60536U 24149BW  26191.16652374  .00007816  00000+0  46249-3 0  9992
2 60536  97.6880 274.2005 0002818  77.1938 282.9606 15.11717897103952
SATELIOT_4              
1 60537U 24149BX  26190.83471494  .00001350  00000+0  12308-3 0  9994
2 60537  97.6736 264.8898 0001529  18.0941 342.0335 14.96750605103362
PICO-02A021             
1 60538U 24149BY  26189.73169079  .00002640  00000+0  19831-3 0  9996
2 60538  97.6747 268.3815 0003200 317.3767  42.7209 15.03460922102971
ICEYE-X43               
1 60539U 24149BZ  26189.77997472  .00001755  00000+0  14675-3 0  9994
2 60539  97.6814 266.4552 0006953  14.9788 345.1640 14.99772584103351
HAWK-10A                
1 60540U 24149CA  26191.17013613  .00001196  00000+0  11013-3 0  9991
2 60540  97.6893 266.6868 0003607  23.8016 336.3371 14.96585814103424
UMBRA-09                
1 60541U 24149CB  26190.21045289  .00010667  00000+0  51691-3 0  9999
2 60541  97.6970 277.8023 0001785 214.0416 146.0703 15.18723998104069
QPS-SAR-8 (AMATERU-IV)  
1 60542U 24149CC  26191.20960744  .00003325  00000+0  24269-3 0  9996
2 60542  97.6668 270.1688 0004318  58.6109 301.5539 15.04370727103734
ARCTIC WEATHER SATELLITE
1 60543U 24149CD  26189.78066256  .00000618  00000+0  69970-4 0  9993
2 60543  97.6793 259.6278 0003307  64.1630 295.9929 14.89821552102512
CAPELLA-15 (ACADIA-5)   
1 60544U 24149CE  26189.77779346  .00002013  00000+0  20207-3 0  9994
2 60544  97.6776 262.1397 0003386   8.7995 351.3283 14.92382217103076
HAWK-10B                
1 60545U 24149CF  26191.43743691  .00001002  00000+0  93024-4 0  9990
2 60545  97.6812 266.2811 0005926  31.6486 328.5091 14.96585822103463
ICEYE-X39               
1 60546U 24149CG  26189.75770551  .00002756  00000+0  22606-3 0  9992
2 60546  97.6770 266.4889 0006986  63.7023 296.4918 15.00041901103354
