OBJECT_NAME,OBJECT_ID,EPOCH,MEAN_MOTION,ECCENTRICITY,INCLINATION,RA_OF_ASC_NODE,ARG_OF_PERICENTER,MEAN_ANOMALY,EPHEMERIS_TYPE,CLASSIFICATION_TYPE,NORAD_CAT_ID,ELEMENT_SET_NO,REV_AT_EPOCH,BSTAR,MEAN_MOTION_DOT,MEAN_MOTION_DDOT
FLOCK 4BE-9,2024-149AY,2026-07-09T00:52:37.051680,15.41465848,.00030915,97.3785,274.5287,188.6470,171.4725,0,U,60514,999,10568,.27016402E-3,.11231E-3,0
FLOCK 4BE-6,2024-149BA,2026-07-09T12:54:19.114272,15.40208441,.00037495,97.3785,274.3506,190.1584,169.9587,0,U,60516,999,10571,.26875504E-3,.10716E-3,0
FLOCK 4BE-14,2024-149BB,2026-07-10T12:55:44.550912,15.41751243,.0004831,97.3694,275.5187,192.1520,167.9611,0,U,60517,999,10592,.28755E-3,.12078E-3,0
FLOCK 4BE-1,2024-149BC,2026-07-09T00:55:56.414496,15.43357693,.00044346,97.3773,275.3610,196.2754,163.8352,0,U,60518,999,10574,.29886531E-3,.13252E-3,0
FLOCK 4BE-28,2024-149BD,2026-07-09T20:40:17.789664,15.45968446,.00044922,97.3741,276.9903,190.5560,169.5596,0,U,60519,999,10594,.71699548E-3,.34967E-3,0
IPERDRONE.0,2024-149BE,2026-07-10T05:03:30.153888,15.70387933,.00041215,97.3764,285.6189,179.5157,180.6110,0,U,60520,999,10652,.60570376E-3,.74284E-3,0
TRANSPORTER-11 OBJECT BF,2024-149BF,2026-07-10T00:13:45.429312,16.02659162,.00090998,97.3769,288.9727,242.2499,117.7859,0,U,60521,999,10671,.10868105E-2,.642774E-2,.19563398E-3
CONNECTA IOT-2,2024-149BG,2026-07-10T00:40:48.731520,15.24167123,.000514,97.3836,268.8295,234.3060,125.7699,0,U,60522,999,10537,.13348206E-3,.3178E-4,0
CONNECTA IOT-4,2024-149BJ,2026-07-10T04:06:07.776576,15.43036406,.0005605,97.3792,275.8252,191.4649,168.6472,0,U,60524,999,10587,.36763594E-3,.16156E-3,0
ORESAT0.5,2024-149BK,2026-07-10T05:34:42.156768,15.45976258,.00057461,97.3723,277.5988,180.9142,179.2098,0,U,60525,999,10603,.32967875E-3,.15999E-3,0
DEIMOS,2024-149BL,2026-07-10T11:19:45.693696,15.45074157,.0005518,97.3782,277.9699,185.2685,174.8507,0,U,60526,999,10604,.30057E-3,.14131E-3,0
CUAVA-2,2024-149BM,2026-07-10T04:54:23.596128,15.36657093,.0006444,97.3724,272.7694,197.0592,163.0436,0,U,60527,999,10570,.25158813E-3,.8931E-4,0
ERNST,2024-149BN,2026-07-10T04:18:00.127296,15.39810731,.00057134,97.3805,275.0800,196.7849,163.3209,0,U,60528,999,10581,.26400896E-3,.10391E-3,0
TORO,2024-149BQ,2026-07-09T10:32:27.974688,14.96508455,.00014255,97.6784,264.6917,92.2842,267.8543,0,U,60530,999,10328,.11720697E-3,.1275E-4,0
HYPSO-2,2024-149BR,2026-07-07T16:42:14.807808,14.98904414,.00019125,97.6823,264.6570,108.2868,251.8563,0,U,60531,999,10312,.21835748E-3,.2581E-4,0
LEMU NGE,2024-149BS,2026-07-10T05:01:39.993888,14.95046009,.00006545,97.6831,265.7039,67.3276,292.8014,0,U,60532,999,10339,.13820861E-3,.1456E-4,0
LEMUR-2-STELLA,2024-149BT,2026-07-09T01:15:57.192192,15.12285468,.00010331,97.6729,272.6092,111.4430,248.6911,0,U,60533,999,10380,.46022355E-3,.7901E-4,0
SATELIOT_2,2024-149BU,2026-07-10T08:43:18.989472,14.96449125,.00018373,97.6827,265.8970,82.5580,277.5851,0,U,60534,999,10343,.1521881E-3,.1669E-4,0
NIGHTJAR,2024-149BV,2026-07-10T03:41:39.273792,14.99146764,.00023196,97.6828,267.5378,105.8069,254.3410,0,U,60535,999,14631,.19595102E-3,.2325E-4,0
LEMUR-2-MARHISYAM,2024-149BW,2026-07-10T03:59:47.651136,15.11717897,.00028183,97.6880,274.2005,77.1938,282.9606,0,U,60536,999,10395,.46249155E-3,.7816E-4,0
SATELIOT_4,2024-149BX,2026-07-09T20:01:59.370816,14.96750605,.0001529,97.6736,264.8898,18.0941,342.0335,0,U,60537,999,10336,.1230785E-3,.135E-4,0
PICO-02A021,2024-149BY,2026-07-08T17:33:38.084256,15.03460922,.00032008,97.6747,268.3815,317.3767,42.7209,0,U,60538,999,10297,.19830685E-3,.264E-4,0
ICEYE-X43,2024-149BZ,2026-07-08T18:43:09.815808,14.99772584,.00069538,97.6814,266.4552,14.9788,345.1640,0,U,60539,999,10335,.14675091E-3,.1755E-4,0
HAWK-10A,2024-149CA,2026-07-10T04:04:59.761632,14.96585814,.0003607,97.6893,266.6868,23.8016,336.3371,0,U,60540,999,10342,.11012794E-3,.1196E-4,0
UMBRA-09,2024-149CB,2026-07-09T05:03:03.129696,15.18723998,.0001785,97.6970,277.8023,214.0416,146.0703,0,U,60541,999,10406,.51690564E-3,.10667E-3,0
QPS-SAR-8 (AMATERU-IV),2024-149CC,2026-07-10T05:01:50.082816,15.04370727,.00043187,97.6668,270.1688,58.6109,301.5539,0,U,60542,999,10373,.24268762E-3,.3325E-4,0
ARCTIC WEATHER SATELLITE,2024-149CD,2026-07-08T18:44:09.245184,14.89821552,.0003307,97.6793,259.6278,64.1630,295.9929,0,U,60543,999,10251,.69970158E-4,.618E-5,0
CAPELLA-15 (ACADIA-5),2024-149CE,2026-07-08T18:40:01.354944,14.92382217,.00033866,97.6776,262.1397,8.7995,351.3283,0,U,60544,999,10307,.20207209E-3,.2013E-4,0
HAWK-10B,2024-149CF,2026-07-10T10:29:54.549024,14.96585822,.00059267,97.6812,266.2811,31.6486,328.5091,0,U,60545,999,10346,.93023625E-4,.1002E-4,0
ICEYE-X39,2024-149CG,2026-07-08T18:11:05.756064,15.00041901,.00069867,97.6770,266.4889,63.7023,296.4918,0,U,60546,999,10335,.22606183E-3,.2756E-4,0
